{"spkid": "50616718", "covariance": {"epoch": "2457546.5", "data": [["1.761758309717219E-15", "-3.66577473920098E-15", "1.299375342259883E-12", "4.148943851479912E-13", "2.594578996741054E-13", "-3.156184170196806E-14"], ["-3.66577473920098E-15", "8.986858482058967E-15", "1.132611069245864E-12", "-9.449403681205033E-13", "8.765931917922886E-13", "1.239003362106398E-13"], ["1.299375342259883E-12", "1.132611069245864E-12", "1.201456587880608E-8", "-1.751667613005784E-10", "4.556677585640215E-9", "1.451457633973847E-10"], ["4.148943851479912E-13", "-9.449403681205033E-13", "-1.751667613005784E-10", "2.004020917306092E-9", "-1.959559814944059E-9", "1.065535757282615E-10"], ["2.594578996741054E-13", "8.765931917922886E-13", "4.556677585640215E-9", "-1.959559814944059E-9", "3.590697147990853E-9", "-6.167940502339004E-11"], ["-3.156184170196806E-14", "1.239003362106398E-13", "1.451457633973847E-10", "1.065535757282615E-10", "-6.167940502339004E-11", "5.684513645705805E-11"]], "elements": [{"title": "eccentricity", "value": ".5671960438127033", "units": null, "sigma": 4.19733047271384e-08, "name": "e", "label": "e"}, {"units": "au", "value": "1.013396677551459", "title": "perihelion distance", "name": "q", "sigma": 9.4799042622059e-08, "label": "q"}, {"value": "2457556.309173834019", "title": "time of perihelion passage", "units": "TDB", "sigma": 0.000109610975174962, "name": "tp", "label": "tp"}, {"sigma": 4.47662921996684e-05, "name": "om", "title": "longitude of the ascending node", "value": "19.77460226059801", "units": "deg", "label": "node"}, {"sigma": 5.99224260856556e-05, "name": "w", "units": "deg", "title": "argument of perihelion", "value": "18.60033900455367", "label": "peri"}, {"label": "i", "title": "inclination", "value": "8.809762258068263", "units": "deg", "sigma": 7.53957137091082e-06, "name": "i"}], "labels": ["e", "q", "tp", "node", "peri", "i"]}, "elements": [{"label": "e", "name": "e", "sigma": "4.5123E-8", "title": "eccentricity", "value": ".5654291380971667", "units": null}, {"name": "a", "sigma": "8.2603E-8", "title": "semi-major axis", "value": "2.343444492470873", "units": "au", "label": "a"}, {"label": "q", "sigma": "9.72E-8", "name": "q", "units": "au", "value": "1.018392692914515", "title": "perihelion distance"}, {"sigma": "7.502E-6", "name": "i", "units": "deg", "title": "inclination; angle with respect to x-y ecliptic plane", "value": "8.725740789269166", "label": "i"}, {"units": "deg", "title": "longitude of the ascending node", "value": "19.46006460724663", "sigma": "4.5404E-5", "name": "om", "label": "node"}, {"units": "deg", "value": "19.30373767436042", "title": "argument of perihelion", "name": "w", "sigma": "6.1098E-5", "label": "peri"}, {"label": "M", "units": "deg", "title": "mean anomaly", "value": "280.3907173984861", "name": "ma", "sigma": "8.5105E-5"}, {"sigma": ".00032506", "name": "tp", "units": "TDB", "title": "time of perihelion passage", "value": "2461490.262141811793", "label": "tp"}, {"sigma": "6.9281E-5", "name": "per", "value": "1310.329243568161", "title": "sidereal orbital period", "units": "d", "label": "period"}, {"name": "n", "sigma": "1.4526E-8", "units": "deg/d", "value": ".2747401096076303", "title": "mean motion", "label": "n"}, {"title": "aphelion distance", "value": "3.668496292027231", "units": "au", "sigma": "1.2931E-7", "name": "ad", "label": "Q"}], "epoch": "2461200.5"}